JY1SAT (JO-97)          
1 43803U 18099AX  26068.68634132  .00017774  00000+0  60804-3 0  9996
2 43803  97.4249 131.3625 0004723 256.6795 103.3919 15.30302628398390
STARLINK-32201          
1 61512U 24183D   26068.43019996  .00000088  00000+0  15082-4 0  9991
2 61512  53.1600 130.8022 0000953  92.4645 267.6464 15.30191196 79798
